NORAD_CAT_ID,OBJECT_NAME,OBJECT_TYPE,EPOCH,MEAN_MOTION,ECCENTRICITY,INCLINATION,RA_OF_ASC_NODE,ARG_OF_PERICENTER,MEAN_ANOMALY,BSTAR,MEAN_MOTION_DOT,MEAN_MOTION_DDOT,TLE_LINE0,TLE_LINE1,TLE_LINE2,SEMIMAJOR_AXIS,PERIOD,APOGEE,PERIGEE,DECAYED
55396.0,STARLINK-5283,PAYLOAD,2023-08-30 01:01:31,14.99140029,0.0003287,69.9992,230.702,269.7494,90.3288,1.8178e-05,1.28e-06,0.0,0 STARLINK-5283,1 55396U 23014F   23242.04272958  .00000128  00000-0  18178-4 0  9998,2 55396  69.9992 230.7020 0003287 269.7494  90.3288 14.99140029 32913,6947.689,96.055,571.838,567.27,0.0
55396.0,STARLINK-5283,PAYLOAD,2023-08-30 17:02:21,14.99143691,0.000336,69.9998,229.0175,267.9552,92.1223,-8.8542e-05,-1.173e-05,0.0,0 STARLINK-5283,1 55396U 23014F   23242.70996699 -.00001173  00000-0 -88542-4 0  9991,2 55396  69.9998 229.0175 0003360 267.9552  92.1223 14.99143691 33950,6947.678,96.055,571.877,567.208,0.0
55396.0,STARLINK-5283,PAYLOAD,2023-09-01 09:04:24,14.99116393,0.0003384,70.0,224.8076,256.9267,103.1515,0.00082103,9.919e-05,0.0,0 STARLINK-5283,1 55396U 23014F   23244.37806403  .00009919  00000-0  82103-3 0  9999,2 55396  70.0000 224.8076 0003384 256.9267 103.1515 14.99116393 33267,6947.762,96.057,571.978,567.276,0.0
55396.0,STARLINK-5283,PAYLOAD,2023-09-01 21:53:04,14.99139996,0.0003199,69.9996,223.4589,270.5464,89.5329,1.4682e-06,-7.6e-07,0.0,0 STARLINK-5283,1 55396U 23014F   23244.91185710 -.00000076  00000-0  14682-5 0  9995,2 55396  69.9996 223.4589 0003199 270.5464  89.5329 14.99139996 34284,6947.689,96.055,571.777,567.332,0.0
55396.0,STARLINK-5283,PAYLOAD,2023-09-02 15:29:58,14.99141891,0.0003177,69.9994,221.606,270.2814,89.7982,2.1912e-05,1.73e-06,0.0,0 STARLINK-5283,1 55396U 23014F   23245.64581780  .00000173  00000-0  21912-4 0  9993,2 55396  69.9994 221.6060 0003177 270.2814  89.7982 14.99141891 34394,6947.683,96.055,571.756,567.341,0.0
55396.0,STARLINK-5283,PAYLOAD,2023-09-03 01:06:28,14.991348,0.0003034,69.9998,220.5957,270.0041,90.0771,-2.8874e-05,-4.45e-06,0.0,0 STARLINK-5283,1 55396U 23014F   23246.04616768 -.00000445  00000-0 -28874-4 0  9991,2 55396  69.9998 220.5957 0003034 270.0041  90.0771 14.99134800 33519,6947.705,96.055,571.678,567.462,0.0
55396.0,STARLINK-5283,PAYLOAD,2023-09-03 09:06:53,14.99138552,0.0002989,69.9999,219.7537,268.8121,91.2696,1.8892e-05,1.36e-06,0.0,0 STARLINK-5283,1 55396U 23014F   23246.37978422  .00000136  00000-0  18892-4 0  9999,2 55396  69.9999 219.7537 0002989 268.8121  91.2696 14.99138552 34503,6947.694,96.055,571.635,567.482,0.0
55396.0,STARLINK-5283,PAYLOAD,2023-09-04 04:19:53,14.99133389,0.0002945,70.0003,217.7327,269.5165,90.5657,-6.6947e-05,-9.09e-06,0.0,0 STARLINK-5283,1 55396U 23014F   23247.18047932 -.00000909  00000-0 -66947-4 0  9996,2 55396  70.0003 217.7327 0002945 269.5165  90.5657 14.99133389 33685,6947.71,96.055,571.621,567.528,0.0
55396.0,STARLINK-5283,PAYLOAD,2023-09-04 05:55:58,14.99135484,0.0002899,70.0004,217.5641,269.1105,90.9723,-3.6147e-05,-5.34e-06,0.0,0 STARLINK-5283,1 55396U 23014F   23247.24720152 -.00000534  00000-0 -36147-4 0  9998,2 55396  70.0004 217.5641 0002899 269.1105  90.9723 14.99135484 34633,6947.703,96.055,571.582,567.554,0.0
55396.0,STARLINK-5283,PAYLOAD,2023-09-04 21:56:47,14.99136366,0.0003025,70.0001,215.8797,269.8074,90.2739,3.2777e-05,3.06e-06,0.0,0 STARLINK-5283,1 55396U 23014F   23247.91443977  .00000306  00000-0  32777-4 0  9999,2 55396  70.0001 215.8797 0003025 269.8074  90.2739 14.99136366 33793,6947.7,96.055,571.667,567.464,0.0
55396.0,STARLINK-5283,PAYLOAD,2023-09-05 09:09:21,14.99141003,0.0003058,70.0003,214.7006,271.1381,88.9428,8.4043e-05,9.31e-06,0.0,0 STARLINK-5283,1 55396U 23014F   23248.38150343  .00000931  00000-0  84043-4 0  9990,2 55396  70.0003 214.7006 0003058 271.1381  88.9428 14.99141003 34805,6947.686,96.055,571.676,567.426,0.0
55396.0,STARLINK-5283,PAYLOAD,2023-09-05 15:33:41,14.99151051,0.000316,70.0005,214.0266,268.1923,91.8874,-7.1667e-05,-9.67e-06,0.0,0 STARLINK-5283,1 55396U 23014F   23248.64839561 -.00000967  00000-0 -71667-4 0  9994,2 55396  70.0005 214.0266 0003160 268.1923  91.8874 14.99151051 33902,6947.655,96.054,571.715,567.325,0.0
55396.0,STARLINK-5283,PAYLOAD,2023-09-06 09:10:36,14.99139763,0.0003067,70.0005,212.174,270.1133,89.9675,7.6553e-05,8.39e-06,0.0,0 STARLINK-5283,1 55396U 23014F   23249.38236302  .00000839  00000-0  76553-4 0  9995,2 55396  70.0005 212.1740 0003067 270.1133  89.9675 14.99139763 34016,6947.69,96.055,571.686,567.424,0.0
55396.0,STARLINK-5283,PAYLOAD,2023-09-07 07:35:45,14.99137628,0.0002949,70.0007,209.8159,270.2667,89.8154,-5.5937e-05,-7.75e-06,0.0,0 STARLINK-5283,1 55396U 23014F   23250.31650405 -.00000775  00000-0 -55937-4 0  9998,2 55396  70.0007 209.8159 0002949 270.2667  89.8154 14.99137628 34150,6947.696,96.055,571.61,567.513,0.0
55396.0,STARLINK-5283,PAYLOAD,2023-09-08 07:36:59,14.9913844,0.0002565,70.0018,207.2883,268.0678,92.0188,2.0669e-05,1.58e-06,0.0,0 STARLINK-5283,1 55396U 23014F   23251.31736079  .00000158  00000-0  20669-4 0  9998,2 55396  70.0018 207.2883 0002565 268.0678  92.0188 14.99138440 34302,6947.694,96.055,571.341,567.777,0.0
55396.0,STARLINK-5283,PAYLOAD,2023-09-09 06:02:09,14.9914414,0.0002557,70.0018,204.9326,261.977,98.1099,-4.3519e-05,-6.24e-06,0.0,0 STARLINK-5283,1 55396U 23014F   23252.25149472 -.00000624  00000-0 -43519-4 0  9996,2 55396  70.0018 204.9326 0002557 261.9770  98.1099 14.99144140 35385,6947.676,96.055,571.318,567.765,0.0
55396.0,STARLINK-5283,PAYLOAD,2023-09-09 14:02:34,14.991384,0.0002783,70.0016,204.0896,271.2716,88.8125,1.2177e-05,5.5e-07,0.0,0 STARLINK-5283,1 55396U 23014F   23252.58511625  .00000055  00000-0  12177-4 0  9997,2 55396  70.0016 204.0896 0002783 271.2716  88.8125 14.99138400 34490,6947.694,96.055,571.493,567.626,0.0
55396.0,STARLINK-5283,PAYLOAD,2023-09-10 07:39:28,14.99139235,0.0002705,70.0017,202.2364,265.4334,94.6517,-7.1371e-06,-1.81e-06,0.0,0 STARLINK-5283,1 55396U 23014F   23253.31907956 -.00000181  00000-0 -71371-5 0  9999,2 55396  70.0017 202.2364 0002705 265.4334  94.6517 14.99139235 35540,6947.692,96.055,571.436,567.677,0.0
55396.0,STARLINK-5283,PAYLOAD,2023-09-11 02:52:28,14.99132053,0.0002662,70.002,200.2167,266.9535,93.132,-7.3484e-05,-9.89e-06,0.0,0 STARLINK-5283,1 55396U 23014F   23254.11977372 -.00000989  00000-0 -73484-4 0  9999,2 55396  70.0020 200.2167 0002662 266.9535  93.1320 14.99132053 34720,6947.714,96.056,571.428,567.729,0.0
55396.0,STARLINK-5283,PAYLOAD,2023-09-11 14:05:02,14.99138412,0.0002755,70.002,199.0356,269.6657,90.4186,-1.2198e-05,-2.42e-06,0.0,0 STARLINK-5283,1 55396U 23014F   23254.58683578 -.00000242  00000-0 -12198-4 0  9999,2 55396  70.0020 199.0356 0002755 269.6657  90.4186 14.99138412 35730,6947.694,96.055,571.473,567.645,0.0
55396.0,STARLINK-5283,PAYLOAD,2023-09-12 06:05:51,14.9914795,0.0002933,70.0016,197.351,266.5599,93.5225,3.0403e-05,2.77e-06,0.0,0 STARLINK-5283,1 55396U 23014F   23255.25406664  .00000277  00000-0  30403-4 0  9998,2 55396  70.0016 197.3510 0002933 266.5599  93.5225 14.99147950 34898,6947.665,96.055,571.567,567.492,0.0
55396.0,STARLINK-5283,PAYLOAD,2023-09-12 20:30:37,14.98989472,0.0002229,70.0022,195.8371,259.6611,100.4297,0.0024037,0.00029202,0.0,0 STARLINK-5283,1 55396U 23014F   23255.85459740  .00029202  00000-0  24037-2 0  9990,2 55396  70.0022 195.8371 0002229 259.6611 100.4297 14.98989472 35923,6948.154,96.065,571.568,568.471,0.0
55396.0,STARLINK-5283,PAYLOAD,2023-09-13 02:54:57,14.99060532,0.0002012,70.0023,195.1646,237.0108,123.0858,0.0013563,0.00016437,0.0,0 STARLINK-5283,1 55396U 23014F   23256.12149829  .00016437  00000-0  13563-2 0  9993,2 55396  70.0023 195.1646 0002012 237.0108 123.0858 14.99060532 35026,6947.935,96.06,571.198,568.402,0.0
55396.0,STARLINK-5283,PAYLOAD,2023-09-13 06:07:08,14.99006213,0.0002426,70.0022,194.8258,257.0665,103.0224,0.0023475,0.00028527,0.0,0 STARLINK-5283,1 55396U 23014F   23256.25496174  .00028527  00000-0  23475-2 0  9991,2 55396  70.0022 194.8258 0002426 257.0665 103.0224 14.99006213 35042,6948.103,96.064,571.653,568.282,0.0
55396.0,STARLINK-5283,PAYLOAD,2023-09-13 22:07:57,14.99122236,0.0002795,70.0028,193.1426,280.7785,79.306,-0.00026919,-3.371e-05,0.0,0 STARLINK-5283,1 55396U 23014F   23256.92219357 -.00003371  00000-0 -26919-3 0  9990,2 55396  70.0028 193.1426 0002795 280.7785  79.3060 14.99122236 36084,6947.744,96.056,571.551,567.667,0.0
55396.0,STARLINK-5283,PAYLOAD,2023-09-14 02:56:11,14.99138326,0.0002292,70.0025,192.6381,262.5333,97.5566,-0.00025455,-3.194e-05,0.0,0 STARLINK-5283,1 55396U 23014F   23257.12235772 -.00003194  00000-0 -25455-3 0  9999,2 55396  70.0025 192.6381 0002292 262.5333  97.5566 14.99138326 35173,6947.694,96.055,571.152,567.967,0.0
55396.0,STARLINK-5283,PAYLOAD,2023-09-14 06:08:21,14.99136474,0.0002816,70.0015,192.2998,274.3175,85.7663,-0.0001515,-1.939e-05,0.0,0 STARLINK-5283,1 55396U 23014F   23257.25580236 -.00001939  00000-0 -15150-3 0  9997,2 55396  70.0015 192.2998 0002816 274.3175  85.7663 14.99136474 36135,6947.7,96.055,571.522,567.609,0.0
55396.0,STARLINK-5283,PAYLOAD,2023-09-14 18:57:00,14.99150994,0.0002547,70.0011,190.9511,273.9618,86.125,-0.00025699,-3.224e-05,0.0,0 STARLINK-5283,1 55396U 23014F   23257.78959132 -.00003224  00000-0 -25699-3 0  9998,2 55396  70.0011 190.9511 0002547 273.9618  86.1250 14.99150994 35279,6947.655,96.054,571.29,567.751,0.0
55396.0,STARLINK-5283,PAYLOAD,2023-09-14 20:33:05,14.99161427,0.0002541,70.0008,190.7841,266.8218,93.2651,-0.00039278,-4.879e-05,0.0,0 STARLINK-5283,1 55396U 23014F   23257.85631298 -.00004879  00000-0 -39278-3 0  9991,2 55396  70.0008 190.7841 0002541 266.8218  93.2651 14.99161427 36223,6947.623,96.054,571.253,567.723,0.0
55396.0,STARLINK-5283,PAYLOAD,2023-09-15 06:09:34,14.99140135,0.0002437,70.0024,189.774,260.906,99.1824,5.569e-05,5.85e-06,0.0,0 STARLINK-5283,1 55396U 23014F   23258.25665457  .00000585  00000-0  55690-4 0  9995,2 55396  70.0024 189.7740 0002437 260.9060  99.1824 14.99140135 36287,6947.689,96.055,571.247,567.861,0.0
